{
  "type": "FeatureCollection",
  "features": [
    {
      "type": "Feature",
      "properties": {
        "norad_id": 43823,
        "name": "GEO-KOMPSAT-2A",
        "group": "weather",
        "lat": -0.0020415504407211896,
        "lon": 78.88527625170016,
        "alt_km": 35784.7759296248,
        "timestamp": "2025-12-21T14:40:47.553313+00:00",
        "meta_object_name": "GEO-KOMPSAT-2A",
        "meta_object_id": "2018-100A",
        "meta_epoch": "2025-12-21T05:16:38.609184",
        "meta_mean_motion": 1.0027085,
        "meta_eccentricity": 4.162e-05,
        "meta_inclination": 0.0515,
        "meta_ra_of_asc_node": 134.4702,
        "meta_arg_of_pericenter": 327.096,
        "meta_mean_anomaly": 195.9071,
        "meta_ephemeris_type": 0,
        "meta_classification_type": "U",
        "meta_norad_cat_id": 43823,
        "meta_element_set_no": 999,
        "meta_rev_at_epoch": 2584,
        "meta_bstar": 0,
        "meta_mean_motion_dot": -3.21e-06,
        "meta_mean_motion_ddot": 0,
        "tle_line1": "1 43823U 18100A   25355.21989131 -.00000321  00000+0  00000+0 0  9999",
        "tle_line2": "2 43823   0.0515 134.4702 0000416 327.0960 195.9071  1.00270850 25846"
      },
      "geometry": {
        "type": "Point",
        "coordinates": [
          78.88527625170016,
          -0.0020415504407211896
        ]
      }
    },
    {
      "type": "Feature",
      "properties": {
        "norad_id": 44387,
        "name": "METEOR-M2 2",
        "group": "weather",
        "lat": 58.962392581100026,
        "lon": 170.538008859288,
        "alt_km": 803.958213648114,
        "timestamp": "2025-12-21T14:40:47.553324+00:00",
        "meta_object_name": "METEOR-M2 2",
        "meta_object_id": "2019-038A",
        "meta_epoch": "2025-12-21T05:41:21.996096",
        "meta_mean_motion": 14.24294871,
        "meta_eccentricity": 0.00016421,
        "meta_inclination": 98.8973,
        "meta_ra_of_asc_node": 335.0699,
        "meta_arg_of_pericenter": 130.3179,
        "meta_mean_anomaly": 229.8143,
        "meta_ephemeris_type": 0,
        "meta_classification_type": "U",
        "meta_norad_cat_id": 44387,
        "meta_element_set_no": 999,
        "meta_rev_at_epoch": 33596,
        "meta_bstar": 8.2088702e-05,
        "meta_mean_motion_dot": 1.44e-06,
        "meta_mean_motion_ddot": 0,
        "tle_line1": "1 44387U 19038A   25355.23706014  .00000144  00000+0  82089-4 0  9999",
        "tle_line2": "2 44387  98.8973 335.0699 0001642 130.3179 229.8143 14.24294871335961"
      },
      "geometry": {
        "type": "Point",
        "coordinates": [
          170.538008859288,
          58.962392581100026
        ]
      }
    },
    {
      "type": "Feature",
      "properties": {
        "norad_id": 47719,
        "name": "ARKTIKA-M 1",
        "group": "weather",
        "lat": 45.45062776703719,
        "lon": 113.7269496236198,
        "alt_km": 24197.4371179121,
        "timestamp": "2025-12-21T14:40:47.553337+00:00",
        "meta_object_name": "ARKTIKA-M 1",
        "meta_object_id": "2021-016A",
        "meta_epoch": "2025-12-21T01:10:59.170944",
        "meta_mean_motion": 2.00630317,
        "meta_eccentricity": 0.7208476,
        "meta_inclination": 63.1763,
        "meta_ra_of_asc_node": 82.8606,
        "meta_arg_of_pericenter": 269.1559,
        "meta_mean_anomaly": 15.5506,
        "meta_ephemeris_type": 0,
        "meta_classification_type": "U",
        "meta_norad_cat_id": 47719,
        "meta_element_set_no": 999,
        "meta_rev_at_epoch": 3521,
        "meta_bstar": 0,
        "meta_mean_motion_dot": -1e-06,
        "meta_mean_motion_ddot": 0,
        "tle_line1": "1 47719U 21016A   25355.04929596 -.00000100  00000+0  00000+0 0  9992",
        "tle_line2": "2 47719  63.1763  82.8606 7208476 269.1559  15.5506  2.00630317 35212"
      },
      "geometry": {
        "type": "Point",
        "coordinates": [
          113.7269496236198,
          45.45062776703719
        ]
      }
    },
    {
      "type": "Feature",
      "properties": {
        "norad_id": 49008,
        "name": "FENGYUN 3E",
        "group": "weather",
        "lat": -60.60982008613378,
        "lon": 11.890646932316955,
        "alt_km": 832.903827409401,
        "timestamp": "2025-12-21T14:40:47.553349+00:00",
        "meta_object_name": "FENGYUN 3E",
        "meta_object_id": "2021-062A",
        "meta_epoch": "2025-12-21T06:30:52.135200",
        "meta_mean_motion": 14.1988229,
        "meta_eccentricity": 7.85e-05,
        "meta_inclination": 98.7469,
        "meta_ra_of_asc_node": 355.6914,
        "meta_arg_of_pericenter": 205.4952,
        "meta_mean_anomaly": 154.6186,
        "meta_ephemeris_type": 0,
        "meta_classification_type": "U",
        "meta_norad_cat_id": 49008,
        "meta_element_set_no": 999,
        "meta_rev_at_epoch": 23133,
        "meta_bstar": 0.000208849,
        "meta_mean_motion_dot": 3.99e-06,
        "meta_mean_motion_ddot": 0,
        "tle_line1": "1 49008U 21062A   25355.27143675  .00000399  00000+0  20885-3 0  9993",
        "tle_line2": "2 49008  98.7469 355.6914 0000785 205.4952 154.6186 14.19882290231333"
      },
      "geometry": {
        "type": "Point",
        "coordinates": [
          11.890646932316955,
          -60.60982008613378
        ]
      }
    },
    {
      "type": "Feature",
      "properties": {
        "norad_id": 51850,
        "name": "GOES 18",
        "group": "weather",
        "lat": -0.0008143178690746283,
        "lon": 173.62986977302182,
        "alt_km": 35786.05462025379,
        "timestamp": "2025-12-21T14:40:47.553363+00:00",
        "meta_object_name": "GOES 18",
        "meta_object_id": "2022-021A",
        "meta_epoch": "2025-12-21T03:59:09.589344",
        "meta_mean_motion": 1.00273572,
        "meta_eccentricity": 1.556e-05,
        "meta_inclination": 0.0206,
        "meta_ra_of_asc_node": 179.4522,
        "meta_arg_of_pericenter": 136.7288,
        "meta_mean_anomaly": 56.6078,
        "meta_ephemeris_type": 0,
        "meta_classification_type": "U",
        "meta_norad_cat_id": 51850,
        "meta_element_set_no": 999,
        "meta_rev_at_epoch": 480,
        "meta_bstar": 0,
        "meta_mean_motion_dot": 1.19e-06,
        "meta_mean_motion_ddot": 0,
        "tle_line1": "1 51850U 22021A   25355.16608321  .00000119  00000+0  00000+0 0  9992",
        "tle_line2": "2 51850   0.0206 179.4522 0000155 136.7288  56.6078  1.00273572  4806"
      },
      "geometry": {
        "type": "Point",
        "coordinates": [
          173.62986977302182,
          -0.0008143178690746283
        ]
      }
    },
    {
      "type": "Feature",
      "properties": {
        "norad_id": 54234,
        "name": "NOAA 21 (JPSS-2)",
        "group": "weather",
        "lat": -65.26801121766242,
        "lon": -48.66325640631768,
        "alt_km": 834.0683295166182,
        "timestamp": "2025-12-21T14:40:47.553374+00:00",
        "meta_object_name": "NOAA 21 (JPSS-2)",
        "meta_object_id": "2022-150A",
        "meta_epoch": "2025-12-21T03:09:08.348832",
        "meta_mean_motion": 14.19526263,
        "meta_eccentricity": 0.00018466,
        "meta_inclination": 98.7474,
        "meta_ra_of_asc_node": 291.3352,
        "meta_arg_of_pericenter": 21.2149,
        "meta_mean_anomaly": 338.9103,
        "meta_ephemeris_type": 0,
        "meta_classification_type": "U",
        "meta_norad_cat_id": 54234,
        "meta_element_set_no": 999,
        "meta_rev_at_epoch": 16128,
        "meta_bstar": 4.2536943e-05,
        "meta_mean_motion_dot": 4.6e-07,
        "meta_mean_motion_ddot": 0,
        "tle_line1": "1 54234U 22150A   25355.13134663  .00000046  00000+0  42537-4 0  9999",
        "tle_line2": "2 54234  98.7474 291.3352 0001846  21.2149 338.9103 14.19526263161286"
      },
      "geometry": {
        "type": "Point",
        "coordinates": [
          -48.66325640631768,
          -65.26801121766242
        ]
      }
    },
    {
      "type": "Feature",
      "properties": {
        "norad_id": 54743,
        "name": "METEOSAT-12 (MTG-I1)",
        "group": "weather",
        "lat": -0.6915880678479311,
        "lon": -49.6793590062475,
        "alt_km": 35782.04997608815,
        "timestamp": "2025-12-21T14:40:47.553387+00:00",
        "meta_object_name": "METEOSAT-12 (MTG-I1)",
        "meta_object_id": "2022-170C",
        "meta_epoch": "2025-12-21T03:32:38.808096",
        "meta_mean_motion": 1.00270641,
        "meta_eccentricity": 0.00014949,
        "meta_inclination": 0.6952,
        "meta_ra_of_asc_node": 24.9849,
        "meta_arg_of_pericenter": 239.5818,
        "meta_mean_anomaly": 238.2565,
        "meta_ephemeris_type": 0,
        "meta_classification_type": "U",
        "meta_norad_cat_id": 54743,
        "meta_element_set_no": 999,
        "meta_rev_at_epoch": 1119,
        "meta_bstar": 0,
        "meta_mean_motion_dot": 1.5e-07,
        "meta_mean_motion_ddot": 0,
        "tle_line1": "1 54743U 22170C   25355.14767139  .00000015  00000+0  00000+0 0  9997",
        "tle_line2": "2 54743   0.6952  24.9849 0001494 239.5818 238.2565  1.00270641 11191"
      },
      "geometry": {
        "type": "Point",
        "coordinates": [
          -49.6793590062475,
          -0.6915880678479311
        ]
      }
    }
  ]
}